STARLINK-30856          
1 58725U 24002W   24275.78448772  .00001790  00000+0  14434-3 0  9997
2 58725  53.1553  97.9154 0001389  99.3594 260.7553 15.04926897 42450
STARLINK-31155          
1 58728U 24005A   24276.09661180 -.00001284  00000+0 -79939-4 0  9990
2 58728  43.0018 186.3433 0001683 283.0742  76.9912 15.02545504 41673
STARLINK-31115          
1 58729U 24005B   24276.15973595 -.00003847  00000+0 -26950-3 0  9995
2 58729  43.0035 185.9457 0001332 277.7250  82.3441 15.02580668 41688
STARLINK-31150          
1 58730U 24005C   24275.75830660 -.00000783  00000+0 -11471-4 0  9996
2 58730  43.0028  89.8557 0001816 288.6944  71.3715 15.40696968 42757
STARLINK-31204          
1 58731U 24005D   24275.77235507  .00001733  00000+0  14335-3 0  9993
2 58731  43.0076 189.9058 0001965 255.0490 105.0134 15.02528446 41592
STARLINK-31180          
1 58732U 24005E   24276.11992407  .00001115  00000+0  97614-4 0  9998
2 58732  43.0017 186.5162 0001322 265.6476  94.4215 15.02535966 41670
STARLINK-31164          
1 58733U 24005F   24275.49176839  .00000488  00000+0  51204-4 0  9999
2 58733  43.0046 190.3945 0001635 263.9201  96.1455 15.02540836 41575
STARLINK-31152          
1 58734U 24005G   24276.15322422  .00002184  00000+0  17668-3 0  9995
2 58734  43.0044 186.7545 0001432 263.3947  96.6732 15.02532392 41666
STARLINK-31157          
1 58735U 24005H   24275.48511073  .00000906  00000+0  82117-4 0  9995
2 58735  43.0016 190.3419 0001344 252.4572 107.6124 15.02541207 41564
STARLINK-31076          
1 58736U 24005J   24276.14655158  .00001670  00000+0  13862-3 0  9992
2 58736  43.0009 186.7016 0001441 272.7273  87.3404 15.02549969 41726
STARLINK-31101          
1 58737U 24005K   24276.13992050  .00001714  00000+0  14195-3 0  9996
2 58737  43.0003 186.6529 0000588 253.7466 106.3311 15.02522344 41674
STARLINK-31108          
1 58738U 24005L   24276.14323017  .00001669  00000+0  13859-3 0  9994
2 58738  43.0034 186.6795 0001460 263.9938  96.0738 15.02540345 41681
STARLINK-31042          
1 58739U 24005M   24275.80418493 -.00000212  00000+0 -61449-6 0  9996
2 58739  43.0009 188.4349 0000738 288.0243  72.0518 15.02534972 41615
STARLINK-31159          
1 58740U 24005N   24276.13322780 -.00006070  00000+0 -43418-3 0  9999
2 58740  43.0075 186.6033 0002553 269.8189  90.2361 15.02575291 41766
STARLINK-31148          
1 58741U 24005P   24276.12990967 -.00001264  00000+0 -78520-4 0  9990
2 58741  43.0026 186.5905 0000973 282.4599  77.6135 15.02550196 41664
STARLINK-31151          
1 58742U 24005Q   24276.12658661  .00001421  00000+0  12025-3 0  9993
2 58742  43.0037 186.5691 0001470 278.5802  81.4874 15.02534345 41767
STARLINK-31156          
1 58743U 24005R   24276.18972873  .00002071  00000+0  16829-3 0  9992
2 58743  43.0032 186.1847 0000834 288.6858  71.3894 15.02538288 41724
STARLINK-31167          
1 58744U 24005S   24275.96187271 -.00033952  00000+0 -12965-2 0  9998
2 58744  43.0031 147.0942 0001806 270.9167  89.1478 15.25846770 42160
STARLINK-31176          
1 58745U 24005T   24276.11659179 -.00000633  00000+0 -31819-4 0  9999
2 58745  43.0031 186.4919 0001037 278.6666  81.4059 15.02538839 41660
STARLINK-31181          
1 58746U 24005U   24275.35013526 -.00001204  00000+0 -36221-4 0  9992
2 58746  43.0034 150.2196 0000840 275.6599  84.4156 15.25903069 42076
STARLINK-31183          
1 58747U 24005V   24276.10993652 -.00000467  00000+0 -19463-4 0  9993
2 58747  43.0042 186.4435 0001313 276.3121  83.7572 15.02532882 41763
STARLINK-31165          
1 58748U 24005W   24276.17973450 -.00009058  00000+0 -65553-3 0  9990
2 58748  43.0036 186.1076 0001397 293.7889  66.2807 15.02580606 41675
STARLINK-31160          
1 58749U 24005X   24276.16974005  .00004146  00000+0  32170-3 0  9997
2 58749  43.0045 185.9618 0001714 265.3623  94.7023 15.02547908 41673
STARLINK-31179          
1 58750U 24005Y   24276.10660175  .00002196  00000+0  17756-3 0  9999
2 58750  43.0047 186.4163 0001295 266.8324  93.2370 15.02541895 41663
STARLINK-31127          
1 58765U 24011A   24275.59745708  .00002739  00000+0  21070-3 0  9997
2 58765  53.1594 238.0678 0001696  90.6777 269.4407 15.04915883 40743
STARLINK-31114          
1 58766U 24011B   24276.14473091  .00002102  00000+0  16613-3 0  9994
2 58766  53.1586 235.0904 0001592  93.7576 266.3596 15.04932569 40712
STARLINK-31140          
1 58767U 24011C   24276.19193996  .00003387  00000+0  25580-3 0  9992
2 58767  53.1577 235.3761 0001718  78.6299 281.4884 15.04938682 40812
STARLINK-31145          
1 58768U 24011D   24276.18872355  .00010619  00000+0  75983-3 0  9993
2 58768  53.1593 235.3580 0001615  98.0521 262.0652 15.04936401 40714
STARLINK-31146          
1 58769U 24011E   24276.18442599  .00001326  00000+0  11198-3 0  9990
2 58769  53.1580 235.3282 0001489 102.0223 258.0934 15.04936584 40837
STARLINK-31143          
1 58770U 24011F   24276.18120401 -.00001107  00000+0 -57913-4 0  9992
2 58770  53.1598 235.3094 0001337  96.6249 263.4893 15.04941376 40713
STARLINK-31135          
1 58771U 24011G   24275.31463334  .00005815  00000+0  42526-3 0  9993
2 58771  53.1578 239.1465 0001071  77.2486 282.8624 15.04921469 40571
STARLINK-31136          
1 58772U 24011H   24276.17477095  .00000840  00000+0  78020-4 0  9990
2 58772  53.1609 235.2709 0001607  97.5171 262.6001 15.04933280 40812
STARLINK-31073          
1 58773U 24011J   24275.64025976 -.00000627  00000+0 -24447-4 0  9998
2 58773  53.1600 237.6287 0001282  93.6833 266.4303 15.04933447 40757
STARLINK-31122          
1 58774U 24011K   24275.63705256  .00009120  00000+0  65538-3 0  9994
2 58774  53.1607 237.5947 0002128 121.7020 238.4178 15.04938539 40754
STARLINK-31123          
1 58775U 24011L   24276.16511092  .00000970  00000+0  87122-4 0  9995
2 58775  53.1598 235.2092 0001839  90.5732 269.5468 15.04934158 40706
STARLINK-31117          
1 58776U 24011M   24276.16189438  .00003015  00000+0  22977-3 0  9990
2 58776  53.1597 235.1895 0001525  85.5398 274.5766 15.04942392 40706
STARLINK-31132          
1 58777U 24011N   24276.15600677 -.00000237  00000+0  41196-5 0  9993
2 58777  53.1591 195.2996 0001159 108.2220 251.8906 15.30187432 41383
STARLINK-31120          
1 58778U 24011P   24275.61987377  .00000197  00000+0  33160-4 0  9994
2 58778  53.1607 237.4957 0001599  85.1375 274.9797 15.04926059 40751
STARLINK-31142          
1 58779U 24011Q   24276.15545812  .00001555  00000+0  12792-3 0  9995
2 58779  53.1600 235.1486 0001613  84.6504 275.4669 15.04934893 40818
STARLINK-31099          
1 58781U 24011S   24275.61021435  .00001122  00000+0  97753-4 0  9999
2 58781  53.1597 237.4367 0001462  91.5598 268.5559 15.04925883 40754
STARLINK-31060          
1 58782U 24011T   24275.83335648  .00146570  00000+0  40680-2 0  9990
2 58782  53.1589 196.4422 0003054 165.7213  40.6198 15.35883586  5924
STARLINK-31047          
1 58783U 24011U   24276.13185831  .00001988  00000+0  15821-3 0  9995
2 58783  53.1609 234.9990 0001595  88.1951 271.9221 15.04924167 40709
STARLINK-31039          
1 58784U 24011V   24275.60699614  .00001499  00000+0  12403-3 0  9996
2 58784  53.1582 237.4133 0001348  92.5179 267.5965 15.04925610 40759
STARLINK-31034          
1 58785U 24011W   24276.18291275  .00006019  00000+0  21522-3 0  9997
2 58785  53.1587 193.3088 0001049 101.8698 258.2420 15.30193878 41309
STARLINK-31024          
1 58786U 24011X   24276.13506947  .00000973  00000+0  87290-4 0  9996
2 58786  53.1605 235.0256 0001561  98.8517 261.2649 15.04936971 40706
STARLINK-31189          
1 58787U 24012A   24275.61011567 -.00001663  00000+0 -53777-4 0  9991
2 58787  42.9999 240.7636 0000673 268.4041  91.6733 15.25905067 41136
STARLINK-31185          
1 58788U 24012B   24275.60785071 -.00000902  00000+0 -24623-4 0  9992
2 58788  42.9994 240.7410 0001388 286.3975  73.6723 15.25914562 41130
STARLINK-31166          
1 58789U 24012C   24275.62355657 -.00001852  00000+0 -60991-4 0  9991
2 58789  43.0016 240.0044 0001025  78.0981 281.9985 15.25911057 41146
STARLINK-31187          
1 58790U 24012D   24276.19244769  .00043221  00000+0  16503-2 0  9999
2 58790  42.9988 237.3948 0001350 251.4539 108.6166 15.25952640 41232
STARLINK-31162          
1 58791U 24012E   24275.62142294 -.00002440  00000+0 -83451-4 0  9995
2 58791  43.0080 240.8494 0001188 273.2425  86.8290 15.25917460 41133
STARLINK-31184          
1 58793U 24012G   24275.92381877 -.00010209  00000+0 -38069-3 0  9998
2 58793  42.9990 238.8288 0000797 229.6405 130.4377 15.25936836 41106
STARLINK-31192          
1 58794U 24012H   24275.61676095  .00000138  00000+0  15125-4 0  9991
2 58794  43.0016 239.9408 0000674 287.4334  72.6443 15.25908012 41141
STARLINK-31161          
1 58795U 24012J   24276.18113088 -.00002400  00000+0 -81863-4 0  9991
2 58795  43.0032 237.3200 0001287 263.3928  96.6776 15.25932415 41234
STARLINK-31195          
1 58796U 24012K   24275.00063325 -.00003120  00000+0 -10943-3 0  9990
2 58796  43.0010 243.9425 0001020 253.4833 106.5906 15.25931819 41045
STARLINK-31193          
1 58797U 24012L   24276.17660874  .00000580  00000+0  31983-4 0  9995
2 58797  42.9994 237.2878 0001160 270.2039  89.8679 15.25922393 41231
STARLINK-31168          
1 58798U 24012M   24276.17435368  .00001166  00000+0  54398-4 0  9990
2 58798  43.0018 237.2738 0001671 275.6091  84.4570 15.25918190 41231
STARLINK-31191          
1 58800U 24012P   24276.17209056  .00001355  00000+0  61598-4 0  9997
2 58800  42.9999 237.2557 0001088 228.5696 131.5062 15.25920821 41087
STARLINK-31170          
1 58801U 24012Q   24276.16981146  .00005162  00000+0  20686-3 0  9996
2 58801  42.9996 237.2420 0001341 242.7985 117.2729 15.25940956 41234
STARLINK-31173          
1 58802U 24012R   24276.18642263  .00005740  00000+0  22907-3 0  9993
2 58802  43.0057 210.7852 0000572 287.3464  72.7324 15.25915382 41536
